Satellite: AO-07
Catalog number: 07530
Epoch time:      07228.55503607
Element set:     952
Inclination:      101.5108 deg
RA of node:       264.7790 deg
Eccentricity:    0.0012006
Arg of perigee:   136.9651 deg
Mean anomaly:     223.2365 deg
Mean motion:   12.53572373 rev/day
Decay rate:       -2.8e-07 rev/day^2
Epoch rev:           49868
Checksum:              297

Satellite: AO-10
Catalog number: 14129
Epoch time:      07228.28429466
Element set:     412
Inclination:      026.2404 deg
RA of node:       261.4142 deg
Eccentricity:    0.6065083
Arg of perigee:   047.9046 deg
Mean anomaly:     349.8653 deg
Mean motion:   02.05866980 rev/day
Decay rate:        7.1e-07 rev/day^2
Epoch rev:           18180
Checksum:              300

Satellite: UO-11
Catalog number: 14781
Epoch time:      07227.70346871
Element set:    0446
Inclination:      098.1888 deg
RA of node:       251.5461 deg
Eccentricity:    0.0009042
Arg of perigee:   347.6678 deg
Mean anomaly:     012.4328 deg
Mean motion:   14.79572700 rev/day
Decay rate:       1.58e-06 rev/day^2
Epoch rev:           25853
Checksum:              322

Satellite: RS-15
Catalog number: 23439
Epoch time:      07227.58367778
Element set:      52
Inclination:      064.8178 deg
RA of node:       270.8669 deg
Eccentricity:    0.0157806
Arg of perigee:   180.1483 deg
Mean anomaly:     179.9417 deg
Mean motion:   11.27552399 rev/day
Decay rate:       -3.9e-07 rev/day^2
Epoch rev:           52039
Checksum:              352

Satellite: FO-29
Catalog number: 24278
Epoch time:      07228.77041043
Element set:     568
Inclination:      098.5565 deg
RA of node:       180.2936 deg
Eccentricity:    0.0349896
Arg of perigee:   286.4349 deg
Mean anomaly:     069.8608 deg
Mean motion:   13.52931387 rev/day
Decay rate:       -5.4e-07 rev/day^2
Epoch rev:           54309
Checksum:              361

Satellite: SO-33
Catalog number: 25509
Epoch time:      07228.44871693
Element set:     996
Inclination:      031.4309 deg
RA of node:       245.0360 deg
Eccentricity:    0.0355329
Arg of perigee:   234.1918 deg
Mean anomaly:     122.5185 deg
Mean motion:   14.28169673 rev/day
Decay rate:       -8.6e-07 rev/day^2
Epoch rev:           45987
Checksum:              337

Satellite: AO-40
Catalog number: 26609
Epoch time:      07228.05566248
Element set:     920
Inclination:      006.2331 deg
RA of node:       126.3395 deg
Eccentricity:    0.7967944
Arg of perigee:   353.1605 deg
Mean anomaly:     000.7209 deg
Mean motion:   01.25587986 rev/day
Decay rate:      -2.48e-06 rev/day^2
Epoch rev:            3119
Checksum:              314

Satellite: VO-52
Catalog number: 28650
Epoch time:      07227.75392905
Element set:     702
Inclination:      097.8288 deg
RA of node:       297.1292 deg
Eccentricity:    0.0028321
Arg of perigee:   060.7403 deg
Mean anomaly:     299.6656 deg
Mean motion:   14.81345905 rev/day
Decay rate:       -4.8e-07 rev/day^2
Epoch rev:           12323
Checksum:              323

Satellite: PO-63
Catalog number: 29712
Epoch time:      07228.76440953
Element set:     643
Inclination:      097.9179 deg
RA of node:       287.0746 deg
Eccentricity:    0.0013012
Arg of perigee:   295.9607 deg
Mean anomaly:     064.0253 deg
Mean motion:   14.79793323 rev/day
Decay rate:       4.64e-06 rev/day^2
Epoch rev:            3229
Checksum:              329

/EX
SB KEPS @ AMSAT  $ORB07228.D
Orbital Elements  07228.MICROS

HR AMSAT ORBITAL ELEMENTS FOR THE MICROSATS
FROM WA5QGD FORT WORTH,TX August 16, 2007
Send Subscribe/unsubscribe to KEPS at 
http://www.amsat.org/mailman/listinfo/keps
BID: ORB07228.D
TO ALL RADIO AMATEURS BT

Satellite: AO-16
Catalog number: 20439
Epoch time:      07228.54048998
Element set:     107
Inclination:      098.1993 deg
RA of node:       219.7807 deg
Eccentricity:    0.0011661
Arg of perigee:   011.6815 deg
Mean anomaly:     348.4640 deg
Mean motion:   14.31767598 rev/day
Decay rate:       -2.0e-08 rev/day^2
Epoch rev:           91718
Checksum:              330

Satellite: LO-19
Catalog number: 20442
Epoch time:      07227.52075698
Element set:    0033
Inclination:      098.1817 deg
RA of node:       228.0832 deg
Eccentricity:    0.0012553
Arg of perigee:   013.3029 deg
Mean anomaly:     346.8491 deg
Mean motion:   14.32007468 rev/day
Decay rate:       -5.9e-07 rev/day^2
Epoch rev:           91718
Checksum:              303

Satellite: AO-27
Catalog number: 22825
Epoch time:      07227.49555670
Element set:     754
Inclination:      098.3357 deg
RA of node:       194.8067 deg
Eccentricity:    0.0009433
Arg of perigee:   085.7731 deg
Mean anomaly:     274.4543 deg
Mean motion:   14.29215162 rev/day
Decay rate:        2.4e-07 rev/day^2
Epoch rev:           72396
Checksum:              329

Satellite: IO-26
Catalog number: 22826
Epoch time:      07227.88265062
Element set:    0454
Inclination:      098.3285 deg
RA of node:       196.2218 deg
Eccentricity:    0.0009975
Arg of perigee:   081.7498 deg
Mean anomaly:     278.4812 deg
Mean motion:   14.29461827 rev/day
Decay rate:        6.0e-08 rev/day^2
Epoch rev:           72410
Checksum:              335

Satellite: PO-28
Catalog number: 22829
Epoch time:      07227.45962502
Element set:    0731
Inclination:      098.3173 deg
RA of node:       196.9761 deg
Eccentricity:    0.0010798
Arg of perigee:   059.2113 deg
Mean anomaly:     301.0126 deg
Mean motion:   14.30162681 rev/day
Decay rate:       -8.1e-07 rev/day^2
Epoch rev:           72428
Checksum:              300

Satellite: GO-32
Catalog number: 25397
Epoch time:      07227.78117367
Element set:     375
Inclination:      098.4105 deg
RA of node:       272.3746 deg
Eccentricity:    0.0002039
Arg of perigee:   072.4942 deg
Mean anomaly:     287.6470 deg
Mean motion:   14.23129678 rev/day
Decay rate:        3.4e-07 rev/day^2
Epoch rev:           47263
Checksum:              321

Satellite: MO-46
Catalog number: 26548
Epoch time:      07228.73369695
Element set:     872
Inclination:      064.5583 deg
RA of node:       355.3520 deg
Eccentricity:    0.0007953
Arg of perigee:   190.8638 deg
Mean anomaly:     169.2243 deg
Mean motion:   14.83164674 rev/day
Decay rate:      -2.34e-06 rev/day^2
Epoch rev:           37251
Checksum:              341

Satellite: NO-44
Catalog number: 26931
Epoch time:      07228.46891177
Element set:     660
Inclination:      067.0543 deg
RA of node:       352.2044 deg
Eccentricity:    0.0007063
Arg of perigee:   258.2801 deg
Mean anomaly:     101.7483 deg
Mean motion:   14.29492499 rev/day
Decay rate:      -1.24e-06 rev/day^2
Epoch rev:           30671
Checksum:              302

