DECODE 2-LINE ELSETS WITH THE FOLLOWING KEY:
1 AAAAAU 00  0  0 BBBBB.BBBBBBBB  .CCCCCCCC  00000-0  00000-0 0  DDDZ
2 AAAAA EEE.EEEE FFF.FFFF GGGGGGG HHH.HHHH III.IIII JJ.JJJJJJJJKKKKKZ
KEY: A-CATALOGNUM B-EPOCHTIME C-DECAY D-ELSETNUM E-INCLINATION F-RAAN
G-ECCENTRICITY H-ARGPERIGEE I-MNANOM J-MNMOTION K-ORBITNUM Z-CHECKSUM

TO ALL RADIO AMATEURS BT

AO-07
1 07530U 74089B   07228.55503607 -.00000028  00000-0  10000-3 0  9527
2 07530 101.5108 264.7790 0012006 136.9651 223.2365 12.53572373498684
AO-10
1 14129U 83058B   07228.28429466  .00000071  00000-0  10000-3 0  4123
2 14129 026.2404 261.4142 6065083 047.9046 349.8653 02.05866980181805
UO-11
1 14781U 84021B   07227.70346871  .00000158  00000-0  28428-4 0 04469
2 14781 098.1888 251.5461 0009042 347.6678 012.4328 14.79572700258530
RS-15
1 23439U 94085A   07227.58367778 -.00000039  00000-0  10597-3 0   524
2 23439 064.8178 270.8669 0157806 180.1483 179.9417 11.27552399520398
FO-29
1 24278U 96046B   07228.77041043 -.00000054  00000-0 -15342-4 0  5685
2 24278 098.5565 180.2936 0349896 286.4349 069.8608 13.52931387543097
SO-33
1 25509U 98061B   07228.44871693 -.00000086  00000-0 -31796-4 0  9969
2 25509 031.4309 245.0360 0355329 234.1918 122.5185 14.28169673459872
AO-40
1 26609U 00072B   07228.05566248 -.00000248  00000-0  10000-3 0  9200
2 26609 006.2331 126.3395 7967944 353.1605 000.7209 01.25587986 31191
VO-52
1 28650U 05017B   07227.75392905 -.00000048  00000-0  66228-6 0  7027
2 28650 097.8288 297.1292 0028321 060.7403 299.6656 14.81345905123237
PO-63
1 29712U 07001D   07228.76440953  .00000464  00000-0  68514-4 0  6434
2 29712 097.9179 287.0746 0013012 295.9607 064.0253 14.79793323 32298
AO-16
1 20439U 90005D   07228.54048998 -.00000002  00000-0  14277-4 0  1077
2 20439 098.1993 219.7807 0011661 011.6815 348.4640 14.31767598917186
LO-19
1 20442U 90005G   07227.52075698 -.00000059  00000-0 -67833-5 0 00333
2 20442 098.1817 228.0832 0012553 013.3029 346.8491 14.32007468917183
AO-27
1 22825U 93061C   07227.49555670  .00000024  00000-0  25881-4 0  7540
2 22825 098.3357 194.8067 0009433 085.7731 274.4543 14.29215162723960
IO-26
1 22826U 93061D   07227.88265062  .00000006  00000-0  18610-4 0 04546
2 22826 098.3285 196.2218 0009975 081.7498 278.4812 14.29461827724103
PO-28
1 22829U 93061G   07227.45962502 -.00000081  00000-0 -15423-4 0 07317
2 22829 098.3173 196.9761 0010798 059.2113 301.0126 14.30162681724289
GO-32
1 25397U 98043D   07227.78117367  .00000034  00000-0  33337-4 0  3756
2 25397 098.4105 272.3746 0002039 072.4942 287.6470 14.23129678472637
MO-46
1 26548U 00057D   07228.73369695 -.00000234  00000-0 -10798-4 0  8724
2 26548 064.5583 355.3520 0007953 190.8638 169.2243 14.83164674372519
NO-44
1 26931U 01043C   07228.46891177 -.00000124  00000-0 -16032-4 0  6601
2 26931 067.0543 352.2044 0007063 258.2801 101.7483 14.29492499306714
